$$SOE
2461302.500000000, A.D. 2026-Sep-19 00:00:00.0000, 3.640159680771673E+08, -3.222906850580998E+08, 4.867171028747305E+06,
2461309.500000000, A.D. 2026-Sep-26 00:00:00.0000, 3.709251515629928E+08, -3.154047764288704E+08, 4.089874904763445E+06,
2461316.500000000, A.D. 2026-Oct-03 00:00:00.0000, 3.776783734530982E+08, -3.083862622623836E+08, 3.310858372714028E+06,
2461323.500000000, A.D. 2026-Oct-10 00:00:00.0000, 3.842734659566008E+08, -3.012386453769035E+08, 2.530454973516032E+06,
2461330.500000000, A.D. 2026-Oct-17 00:00:00.0000, 3.907083383472053E+08, -2.939654471488376E+08, 1.748995940869972E+06,
2461337.500000000, A.D. 2026-Oct-24 00:00:00.0000, 3.969809762013489E+08, -2.865702060982142E+08, 9.668101348475665E+05,
2461344.500000000, A.D. 2026-Oct-31 00:00:00.0000, 4.030894407155786E+08, -2.790564766902072E+08, 1.842239574637264E+05,
2461351.500000000, A.D. 2026-Nov-07 00:00:00.0000, 4.090318684433571E+08, -2.714278282769657E+08, -5.984387749001831E+05,
2461358.500000000, A.D. 2026-Nov-14 00:00:00.0000, 4.148064716542453E+08, -2.636878432905289E+08, -1.380856948068231E+06,
2461365.500000000, A.D. 2026-Nov-21 00:00:00.0000, 4.204115375063505E+08, -2.558401140042617E+08, -2.162712033566743E+06,
2461372.500000000, A.D. 2026-Nov-28 00:00:00.0000, 4.258454250352203E+08, -2.478882408703919E+08, -2.943687893261135E+06,
2461379.500000000, A.D. 2026-Dec-05 00:00:00.0000, 4.311065635789300E+08, -2.398358330879840E+08, -3.723470890769228E+06,
2461386.500000000, A.D. 2026-Dec-12 00:00:00.0000, 4.361934528055631E+08, -2.316865082880794E+08, -4.501750070442632E+06,
2461393.500000000, A.D. 2026-Dec-19 00:00:00.0000, 4.411046624577584E+08, -2.234438913281336E+08, -5.278217230146185E+06,
2461400.500000000, A.D. 2026-Dec-26 00:00:00.0000, 4.458388316735118E+08, -2.151116130626492E+08, -6.052566945613861E+06,
2461407.500000000, A.D. 2027-Jan-02 00:00:00.0000, 4.503946681601632E+08, -2.066933092797711E+08, -6.824496587248072E+06,
2461414.500000000, A.D. 2027-Jan-09 00:00:00.0000, 4.547709473391766E+08, -1.981926197825584E+08, -7.593706338451251E+06,
2461421.500000000, A.D. 2027-Jan-16 00:00:00.0000, 4.589665114972137E+08, -1.896131876051103E+08, -8.359899218071222E+06,
2461428.500000000, A.D. 2027-Jan-23 00:00:00.0000, 4.629802689890689E+08, -1.809586584022650E+08, -9.122781114544958E+06,
2461435.500000000, A.D. 2027-Jan-30 00:00:00.0000, 4.668111936790564E+08, -1.722326800595838E+08, -9.882060853074335E+06,
2461442.500000000, A.D. 2027-Feb-06 00:00:00.0000, 4.704583250442126E+08, -1.634389021818712E+08, -1.063745030725040E+07,
2461449.500000000, A.D. 2027-Feb-13 00:00:00.0000, 4.739207684788203E+08, -1.545809742386318E+08, -1.138866441341310E+07,
2461456.500000000, A.D. 2027-Feb-20 00:00:00.0000, 4.771976934374040E+08, -1.456625431568390E+08, -1.213542093578942E+07,
2461463.500000000, A.D. 2027-Feb-27 00:00:00.0000, 4.802883308118050E+08, -1.366872535745407E+08, -1.287744037344980E+07,
2461470.500000000, A.D. 2027-Mar-06 00:00:00.0000, 4.831919725592270E+08, -1.276587488311459E+08, -1.361444612917037E+07,
2461477.500000000, A.D. 2027-Mar-13 00:00:00.0000, 4.859079719811969E+08, -1.185806706430103E+08, -1.434616462623007E+07,
2461484.500000000, A.D. 2027-Mar-20 00:00:00.0000, 4.884357435249575E+08, -1.094566582976006E+08, -1.507232533802149E+07,
2461491.500000000, A.D. 2027-Mar-27 00:00:00.0000, 4.907747623101435E+08, -1.002903479139949E+08, -1.579266079410302E+07,
2461498.500000000, A.D. 2027-Apr-03 00:00:00.0000, 4.929245635843874E+08, -9.108537181623502E+07, -1.650690658541460E+07,
2461505.500000000, A.D. 2027-Apr-10 00:00:00.0000, 4.948847421698781E+08, -8.184535799525505E+07, -1.721480137256774E+07,
2461512.500000000, A.D. 2027-Apr-17 00:00:00.0000, 4.966549519238119E+08, -7.257392967262623E+07, -1.791608690056086E+07,
2461519.500000000, A.D. 2027-Apr-24 00:00:00.0000, 4.982349052926682E+08, -6.327470502752462E+07, -1.861050803242182E+07,
2461526.500000000, A.D. 2027-May-01 00:00:00.0000, 4.996243732599401E+08, -5.395129705858898E+07, -1.929781282714422E+07,
2461533.500000000, A.D. 2027-May-08 00:00:00.0000, 5.008231859938380E+08, -4.460731283125775E+07, -1.997775262904103E+07,
2461540.500000000, A.D. 2027-May-15 00:00:00.0000, 5.018312326979386E+08, -3.524635115550218E+07, -2.065008195328468E+07,
2461547.500000000, A.D. 2027-May-22 00:00:00.0000, 5.026484591017253E+08, -2.587200128481152E+07, -2.131455823602512E+07,
2461554.500000000, A.D. 2027-May-29 00:00:00.0000, 5.032748659458820E+08, -1.648784410413043E+07, -2.197094187694559E+07,
2461561.500000000, A.D. 2027-Jun-05 00:00:00.0000, 5.037105093456091E+08, -7.097452672781574E+06, -2.261899639941841E+07,
2461568.500000000, A.D. 2027-Jun-12 00:00:00.0000, 5.039555010249509E+08, 2.295608311937070E+06, -2.325848850874068E+07,
2461575.500000000, A.D. 2027-Jun-19 00:00:00.0000, 5.040100080927299E+08, 1.168778319705679E+07, -2.388918809442099E+07,
2461582.500000000, A.D. 2027-Jun-26 00:00:00.0000, 5.038742526409624E+08, 2.107552594163616E+07, -2.451086822342775E+07,
2461589.500000000, A.D. 2027-Jul-03 00:00:00.0000, 5.035485112987288E+08, 3.045530057863098E+07, -2.512330513574011E+07,
2461596.500000000, A.D. 2027-Jul-10 00:00:00.0000, 5.030331147786301E+08, 3.982358158017591E+07, -2.572627824473454E+07,
2461603.500000000, A.D. 2027-Jul-17 00:00:00.0000, 5.023284474521953E+08, 4.917685408808655E+07, -2.631957014875889E+07,
2461610.500000000, A.D. 2027-Jul-24 00:00:00.0000, 5.014349471105400E+08, 5.851161394743813E+07, -2.690296667323319E+07,
2461617.500000000, A.D. 2027-Jul-31 00:00:00.0000, 5.003531053209898E+08, 6.782436777927278E+07, -2.747625696163752E+07,
2461624.500000000, A.D. 2027-Aug-07 00:00:00.0000, 4.990834681774957E+08, 7.711163424536423E+07, -2.803923350267055E+07,
2461631.500000000, A.D. 2027-Aug-14 00:00:00.0000, 4.976266351437563E+08, 8.636994625396311E+07, -2.859169190306450E+07,
2461638.500000000, A.D. 2027-Aug-21 00:00:00.0000, 4.959832566090373E+08, 9.559585074336565E+07, -2.913343073781367E+07,
2461645.500000000, A.D. 2027-Aug-28 00:00:00.0000, 4.941540335875037E+08, 1.047859072464525E+08, -2.966425169437647E+07,
2461652.500000000, A.D. 2027-Sep-04 00:00:00.0000, 4.921397183786900E+08, 1.139366877394135E+08, -3.018395969816422E+07,
2461659.500000000, A.D. 2027-Sep-11 00:00:00.0000, 4.899411147935544E+08, 1.230447771146226E+08, -3.069236294560504E+07,
2461666.500000000, A.D. 2027-Sep-18 00:00:00.0000, 4.875590780794055E+08, 1.321067736285261E+08, -3.118927291043266E+07,
2461673.500000000, A.D. 2027-Sep-25 00:00:00.0000, 4.849945147724775E+08, 1.411192892478845E+08, -3.167450435084825E+07,
2461680.500000000, A.D. 2027-Oct-02 00:00:00.0000, 4.822483825529240E+08, 1.500789499229469E+08, -3.214787532247728E+07,
2461687.500000000, A.D. 2027-Oct-09 00:00:00.0000, 4.793216901242995E+08, 1.589823957841849E+08, -3.260920719980164E+07,
2461694.500000000, A.D. 2027-Oct-16 00:00:00.0000, 4.762154971803452E+08, 1.678262812089632E+08, -3.305832471656448E+07,
2461701.500000000, A.D. 2027-Oct-23 00:00:00.0000, 4.729309147186940E+08, 1.766072747536335E+08, -3.349505604966214E+07,
2461708.500000000, A.D. 2027-Oct-30 00:00:00.0000, 4.694691060754376E+08, 1.853220595622039E+08, -3.391923293118168E+07,
2461715.500000000, A.D. 2027-Nov-06 00:00:00.0000, 4.658312875154074E+08, 1.939673353811376E+08, -3.433069058967268E+07,
2461722.500000000, A.D. 2027-Nov-13 00:00:00.0000, 4.620187263927680E+08, 2.025398201069734E+08, -3.472926750826108E+07,
2461729.500000000, A.D. 2027-Nov-20 00:00:00.0000, 4.580327397857810E+08, 2.110362486825440E+08, -3.511480544470853E+07,
2461736.500000000, A.D. 2027-Nov-27 00:00:00.0000, 4.538746952232582E+08, 2.194533723063891E+08, -3.548714961967973E+07,
2461743.500000000, A.D. 2027-Dec-04 00:00:00.0000, 4.495460114782619E+08, 2.277879588701786E+08, -3.584614881291326E+07,
2461750.500000000, A.D. 2027-Dec-11 00:00:00.0000, 4.450481588783287E+08, 2.360367936614387E+08, -3.619165539557636E+07,
2461757.500000000, A.D. 2027-Dec-18 00:00:00.0000, 4.403826594072496E+08, 2.441966799935752E+08, -3.652352535174260E+07,
2461764.500000000, A.D. 2027-Dec-25 00:00:00.0000, 4.355510867503506E+08, 2.522644397619877E+08, -3.684161830310560E+07,
2461771.500000000, A.D. 2028-Jan-01 00:00:00.0000, 4.305550663245468E+08, 2.602369139416812E+08, -3.714579753950509E+07,
$$EOE